OBJECT_NAME,OBJECT_ID,EPOCH,MEAN_MOTION,ECCENTRICITY,INCLINATION,RA_OF_ASC_NODE,ARG_OF_PERICENTER,MEAN_ANOMALY,EPHEMERIS_TYPE,CLASSIFICATION_TYPE,NORAD_CAT_ID,ELEMENT_SET_NO,REV_AT_EPOCH,BSTAR,MEAN_MOTION_DOT,MEAN_MOTION_DDOT
BEIDOU-2 IGSO-1 (C06),2010-036A,2026-05-12T16:32:11.849856,1.00282752,.00588559,54.2951,163.2807,224.5644,197.8413,0,U,36828,999,5774,0,-.41E-6,0
BEIDOU-2 G4 (C04),2010-057A,2026-05-12T15:15:43.737696,1.00272776,.00055281,3.5584,69.1415,211.1835,338.9958,0,U,37210,999,5693,0,-.98E-6,0
BEIDOU-2 IGSO-2 (C07),2010-068A,2026-05-11T16:20:11.818176,1.00295576,.0053911,47.6185,272.2854,212.0964,96.0853,0,U,37256,999,5642,0,-.217E-5,0
BEIDOU-2 IGSO-3 (C08),2011-013A,2026-05-11T18:05:41.819136,1.00277207,.0034014,62.3600,40.4988,186.6429,22.0878,0,U,37384,999,5529,0,-.196E-5,0
BEIDOU-2 IGSO-4 (C09),2011-038A,2026-05-12T13:19:22.629792,1.00291444,.01580479,54.5847,165.9879,233.0606,122.6137,0,U,37763,999,5428,0,.71E-6,0
BEIDOU-2 IGSO-5 (C10),2011-073A,2026-05-11T20:42:21.777984,1.00257075,.0111688,47.7477,271.9945,220.6751,140.2883,0,U,37948,999,5277,0,-.165E-5,0
BEIDOU-2 G5 (C05),2012-008A,2026-05-12T13:09:16.100064,1.00271565,.00111341,3.4846,69.8964,271.8936,144.5207,0,U,38091,999,5201,0,.71E-6,0
BEIDOU-2 M3 (C11),2012-018A,2026-05-12T05:06:01.101600,1.86230132,.00197718,55.7895,306.0876,276.8668,82.9033,0,U,38250,999,9527,0,-.38E-6,0
BEIDOU-2 M4 (C12),2012-018B,2026-05-08T22:09:07.925760,1.86229854,.00108839,55.6931,305.4151,282.3733,77.4996,0,U,38251,999,9521,0,-.36E-6,0
BEIDOU-2 M6 (C14),2012-050B,2026-05-11T07:37:25.513824,1.86230920,.00143507,56.5136,64.1133,351.0924,8.8698,0,U,38775,999,9262,0,-.24E-6,0
BEIDOU-2 G6 (C02),2012-059A,2026-05-12T09:51:11.640960,1.00272429,.00106472,4.3306,73.8925,320.5261,67.6404,0,U,38953,999,4955,0,-.162E-5,0
BEIDOU-3S IGSO-1S (C31),2015-019A,2026-05-12T09:54:18.842112,1.00258094,.00376465,49.2649,295.8917,190.2625,346.7594,0,U,40549,999,4071,0,-.171E-5,0
BEIDOU-3S M2S (C58),2015-037A,2026-05-11T06:34:17.210784,1.86232381,.00074653,54.9054,303.3168,268.0236,91.8843,0,U,40748,999,7343,0,-.37E-6,0
BEIDOU-3S M1S (C57),2015-037B,2026-05-11T11:39:27.338976,1.86254916,.00041768,54.9010,303.2971,55.3596,304.6730,0,U,40749,999,7344,0,-.37E-6,0
BEIDOU-3S IGSO-2S (C56),2015-053A,2026-05-11T19:57:21.437568,1.00268034,.0064022,49.2811,259.2153,190.8147,175.4917,0,U,40938,999,3899,0,-.165E-5,0
BEIDOU-2 IGSO-6 (C13),2016-021A,2026-05-11T17:12:21.489696,1.00265884,.00574348,60.1769,38.4042,232.3811,311.4732,0,U,41434,999,3711,0,-.164E-5,0
BEIDOU-2 G7 (C03),2016-037A,2026-05-12T15:06:40.366368,1.00270475,.00076731,1.6316,68.9650,358.2312,140.4586,0,U,41586,999,653,0,-.34E-5,0
BEIDOU-3 M1 (C19),2017-069A,2026-05-12T03:46:00.371136,1.86231332,.0011635,56.6617,64.2720,320.2604,39.6401,0,U,43001,999,5793,0,-.27E-6,0
BEIDOU-3 M2 (C20),2017-069B,2026-05-11T00:31:31.372032,1.86231163,.0009686,56.6651,64.3454,17.2758,342.7452,0,U,43002,999,5790,0,-.22E-6,0
BEIDOU-3 M7 (C27),2018-003A,2026-05-11T20:05:37.019328,1.86228311,.0005213,54.3617,303.5824,84.7412,275.3112,0,U,43107,999,5667,0,-.4E-6,0
BEIDOU-3 M8 (C28),2018-003B,2026-05-12T07:40:06.555648,1.86231243,.00021687,54.3542,303.5475,278.1299,81.8371,0,U,43108,999,5669,0,-.41E-6,0
BEIDOU-3 M4 (C22),2018-018A,2026-05-12T05:24:19.337184,1.86231343,.00077582,56.6208,64.3349,6.5048,353.4905,0,U,43207,999,5607,0,-.27E-6,0
BEIDOU-3 M3 (C21),2018-018B,2026-05-11T05:13:35.563008,1.86231284,.00096428,56.6194,64.3718,332.4369,27.4998,0,U,43208,999,5605,0,-.22E-6,0
BEIDOU-3 M9 (C29),2018-029A,2026-05-12T12:13:26.677920,1.86228370,.00008088,54.2280,301.1966,100.6127,259.3848,0,U,43245,999,5523,0,-.42E-6,0
BEIDOU-3 M10 (C30),2018-029B,2026-05-12T10:39:11.156832,1.86229416,.00046113,54.2256,301.2252,36.4559,323.5641,0,U,43246,999,5521,0,-.42E-6,0
BEIDOU-2 IGSO-7 (C16),2018-057A,2026-05-10T12:26:57.202368,1.00262765,.0104003,55.1875,163.3876,237.7354,126.1724,0,U,43539,999,2875,0,-.11E-6,0
BEIDOU-3 M5 (C23),2018-062A,2026-05-12T03:08:49.695072,1.86229005,.00048146,54.0834,183.5303,287.8378,72.1926,0,U,43581,999,5296,0,.77E-6,0
BEIDOU-3 M6 (C24),2018-062B,2026-05-09T07:25:51.702816,1.86227992,.00048082,54.0831,183.6153,18.9796,341.1148,0,U,43582,999,5291,0,.44E-6,0
BEIDOU-3 M12 (C26),2018-067A,2026-05-09T05:57:09.162144,1.86227965,.00078401,54.1783,182.3610,32.7480,327.3771,0,U,43602,999,5239,0,.46E-6,0
BEIDOU-3 M11 (C25),2018-067B,2026-05-12T01:37:36.105600,1.86227440,.00044232,54.1757,182.2292,17.5437,342.5545,0,U,43603,999,5247,0,.79E-6,0
BEIDOU-3 M13 (C32),2018-072A,2026-05-12T00:32:51.183168,1.86231523,.00083677,56.5943,63.8530,321.3258,38.6007,0,U,43622,999,5198,0,-.27E-6,0
